ONEWEB-0158             
1 48054U 21025N   24310.65746885  .00000422  00000+0  11207-2 0  9990
2 48054  87.8906  77.2759 0001642 102.2447 257.8866 13.13470133176373
ONEWEB-0157             
1 48055U 21025P   24310.60509226 -.00000051  00000+0 -17568-3 0  9999
2 48055  87.8904  77.2995 0001163  91.0310 269.0952 13.13470719176300
ONEWEB-0162             
1 48056U 21025Q   24310.64476956  .00000296  00000+0  77610-3 0  9990
2 48056  87.8902  77.2857 0001558 100.5585 259.5719 13.13473310176286
ONEWEB-0155             
1 48057U 21025R   24310.58923355  .00000301  00000+0  78861-3 0  9990
2 48057  87.8906  77.3093 0001514  91.3064 268.8238 13.13469036176419
ONEWEB-0149             
1 48058U 21025S   24310.38132273 -.00000191  00000+0 -55898-3 0  9994
2 48058  87.8902  77.3461 0001534 107.2781 252.8516 13.13470202176194
ONEWEB-0148             
1 48059U 21025T   24310.65112094  .00000340  00000+0  89568-3 0  9999
2 48059  87.8908  77.3081 0001188 121.1895 238.9351 13.13471613176352
ONEWEB-0160             
1 48060U 21025U   24311.04787828 -.00000536  00000+0 -15039-2 0  9998
2 48060  87.8911  77.2253 0002459 100.1499 259.9907 13.13474722176351
ONEWEB-0163             
1 48061U 21025V   24310.65270785  .00000362  00000+0  95570-3 0  9998
2 48061  87.8904  77.2924 0001264  95.0693 265.0581 13.13472459176429
